{
  "type": "FeatureCollection",
  "features": [
    {
      "type": "Feature",
      "properties": {
        "norad_id": 41773,
        "name": "SKYSAT-C2",
        "group": "resource",
        "lat": 8.216088864358454,
        "lon": 20.661755876703065,
        "alt_km": 453.42233064425545,
        "timestamp": "2025-12-23T14:49:08.987012+00:00",
        "meta_object_name": "SKYSAT-C2",
        "meta_object_id": "2016-058D",
        "meta_epoch": "2025-12-23T00:43:31.021824",
        "meta_mean_motion": 15.37490716,
        "meta_eccentricity": 0.00030252,
        "meta_inclination": 97.0347,
        "meta_ra_of_asc_node": 21.1209,
        "meta_arg_of_pericenter": 4.4218,
        "meta_mean_anomaly": 355.7053,
        "meta_ephemeris_type": 0,
        "meta_classification_type": "U",
        "meta_norad_cat_id": 41773,
        "meta_element_set_no": 999,
        "meta_rev_at_epoch": 51794,
        "meta_bstar": 0.00033635426,
        "meta_mean_motion_dot": 0.00012298,
        "meta_mean_motion_ddot": 0,
        "tle_line1": "1 41773U 16058D   25357.03022016  .00012298  00000+0  33635-3 0  9992",
        "tle_line2": "2 41773  97.0347  21.1209 0003025   4.4218 355.7053 15.37490716517945"
      },
      "geometry": {
        "type": "Point",
        "coordinates": [
          20.661755876703065,
          8.216088864358454
        ]
      }
    },
    {
      "type": "Feature",
      "properties": {
        "norad_id": 41774,
        "name": "SKYSAT-C3",
        "group": "resource",
        "lat": 60.92999742111926,
        "lon": -136.50627458349402,
        "alt_km": 424.7960400074862,
        "timestamp": "2025-12-23T14:49:08.987023+00:00",
        "meta_object_name": "SKYSAT-C3",
        "meta_object_id": "2016-058E",
        "meta_epoch": "2025-12-23T01:52:18.675552",
        "meta_mean_motion": 15.4475041,
        "meta_eccentricity": 0.00020869,
        "meta_inclination": 96.9283,
        "meta_ra_of_asc_node": 30.3439,
        "meta_arg_of_pericenter": 106.8529,
        "meta_mean_anomaly": 253.295,
        "meta_ephemeris_type": 0,
        "meta_classification_type": "U",
        "meta_norad_cat_id": 41774,
        "meta_element_set_no": 999,
        "meta_rev_at_epoch": 51885,
        "meta_bstar": 0.00042584733,
        "meta_mean_motion_dot": 0.0001985,
        "meta_mean_motion_ddot": 0,
        "tle_line1": "1 41774U 16058E   25357.07799393  .00019850  00000+0  42585-3 0  9991",
        "tle_line2": "2 41774  96.9283  30.3439 0002086 106.8529 253.2950 15.44750410518855"
      },
      "geometry": {
        "type": "Point",
        "coordinates": [
          -136.50627458349402,
          60.92999742111926
        ]
      }
    },
    {
      "type": "Feature",
      "properties": {
        "norad_id": 41785,
        "name": "ALSAT 1B",
        "group": "resource",
        "lat": 21.993377378175936,
        "lon": 5.771719512963577,
        "alt_km": 649.356993435018,
        "timestamp": "2025-12-23T14:49:08.987034+00:00",
        "meta_object_name": "ALSAT 1B",
        "meta_object_id": "2016-059C",
        "meta_epoch": "2025-12-23T08:11:36.153024",
        "meta_mean_motion": 14.72086138,
        "meta_eccentricity": 0.00107759,
        "meta_inclination": 97.7804,
        "meta_ra_of_asc_node": 8.6732,
        "meta_arg_of_pericenter": 73.6389,
        "meta_mean_anomaly": 286.6003,
        "meta_ephemeris_type": 0,
        "meta_classification_type": "U",
        "meta_norad_cat_id": 41785,
        "meta_element_set_no": 999,
        "meta_rev_at_epoch": 49470,
        "meta_bstar": 9.3034048e-05,
        "meta_mean_motion_dot": 5.38e-06,
        "meta_mean_motion_ddot": 0,
        "tle_line1": "1 41785U 16059C   25357.34139066  .00000538  00000+0  93034-4 0  9998",
        "tle_line2": "2 41785  97.7804   8.6732 0010775  73.6389 286.6003 14.72086138494703"
      },
      "geometry": {
        "type": "Point",
        "coordinates": [
          5.771719512963577,
          21.993377378175936
        ]
      }
    },
    {
      "type": "Feature",
      "properties": {
        "norad_id": 41787,
        "name": "PATHFINDER 1",
        "group": "resource",
        "lat": -80.72746018532307,
        "lon": 57.14042718259223,
        "alt_km": 691.172027312401,
        "timestamp": "2025-12-23T14:49:08.987045+00:00",
        "meta_object_name": "PATHFINDER 1",
        "meta_object_id": "2016-059E",
        "meta_epoch": "2025-12-23T05:23:11.414688",
        "meta_mean_motion": 14.6733864,
        "meta_eccentricity": 0.00297065,
        "meta_inclination": 97.8137,
        "meta_ra_of_asc_node": 359.5115,
        "meta_arg_of_pericenter": 49.2406,
        "meta_mean_anomaly": 311.1371,
        "meta_ephemeris_type": 0,
        "meta_classification_type": "U",
        "meta_norad_cat_id": 41787,
        "meta_element_set_no": 999,
        "meta_rev_at_epoch": 49390,
        "meta_bstar": 0.00013866817,
        "meta_mean_motion_dot": 7.41e-06,
        "meta_mean_motion_ddot": 0,
        "tle_line1": "1 41787U 16059E   25357.22443767  .00000741  00000+0  13867-3 0  9994",
        "tle_line2": "2 41787  97.8137 359.5115 0029706  49.2406 311.1371 14.67338640493906"
      },
      "geometry": {
        "type": "Point",
        "coordinates": [
          57.14042718259223,
          -80.72746018532307
        ]
      }
    },
    {
      "type": "Feature",
      "properties": {
        "norad_id": 41790,
        "name": "SCATSAT 1",
        "group": "resource",
        "lat": 1.9151790607898413,
        "lon": 54.14849879811345,
        "alt_km": 636.2485064076018,
        "timestamp": "2025-12-23T14:49:08.987057+00:00",
        "meta_object_name": "SCATSAT 1",
        "meta_object_id": "2016-059H",
        "meta_epoch": "2025-12-23T03:26:39.466176",
        "meta_mean_motion": 14.78968555,
        "meta_eccentricity": 0.00564819,
        "meta_inclination": 98.1447,
        "meta_ra_of_asc_node": 53.9431,
        "meta_arg_of_pericenter": 95.2221,
        "meta_mean_anomaly": 265.5439,
        "meta_ephemeris_type": 0,
        "meta_classification_type": "U",
        "meta_norad_cat_id": 41790,
        "meta_element_set_no": 999,
        "meta_rev_at_epoch": 7556,
        "meta_bstar": 0.00018480331,
        "meta_mean_motion_dot": 1.344e-05,
        "meta_mean_motion_ddot": 0,
        "tle_line1": "1 41790U 16059H   25357.14351234  .00001344  00000+0  18480-3 0  9992",
        "tle_line2": "2 41790  98.1447  53.9431 0056481  95.2221 265.5439 14.78968555 75561"
      },
      "geometry": {
        "type": "Point",
        "coordinates": [
          54.14849879811345,
          1.9151790607898413
        ]
      }
    },
    {
      "type": "Feature",
      "properties": {
        "norad_id": 41875,
        "name": "GOKTURK 1A",
        "group": "resource",
        "lat": 4.798268184527242,
        "lon": 70.5261342305434,
        "alt_km": 686.5928676999447,
        "timestamp": "2025-12-23T14:49:08.987068+00:00",
        "meta_object_name": "GOKTURK 1A",
        "meta_object_id": "2016-073A",
        "meta_epoch": "2025-12-23T07:27:17.803008",
        "meta_mean_motion": 14.62791376,
        "meta_eccentricity": 0.00012739,
        "meta_inclination": 98.1431,
        "meta_ra_of_asc_node": 249.5348,
        "meta_arg_of_pericenter": 81.1454,
        "meta_mean_anomaly": 278.9892,
        "meta_ephemeris_type": 0,
        "meta_classification_type": "U",
        "meta_norad_cat_id": 41875,
        "meta_element_set_no": 999,
        "meta_rev_at_epoch": 48311,
        "meta_bstar": 0.00013601981,
        "meta_mean_motion_dot": 6.47e-06,
        "meta_mean_motion_ddot": 0,
        "tle_line1": "1 41875U 16073A   25357.31062272  .00000647  00000+0  13602-3 0  9998",
        "tle_line2": "2 41875  98.1431 249.5348 0001273  81.1454 278.9892 14.62791376483112"
      },
      "geometry": {
        "type": "Point",
        "coordinates": [
          70.5261342305434,
          4.798268184527242
        ]
      }
    },
    {
      "type": "Feature",
      "properties": {
        "norad_id": 41877,
        "name": "RESOURCESAT-2A",
        "group": "resource",
        "lat": 52.93714767073937,
        "lon": 55.609828015451804,
        "alt_km": 815.9128318530511,
        "timestamp": "2025-12-23T14:49:08.987080+00:00",
        "meta_object_name": "RESOURCESAT-2A",
        "meta_object_id": "2016-074A",
        "meta_epoch": "2025-12-23T07:48:35.807616",
        "meta_mean_motion": 14.21604687,
        "meta_eccentricity": 0.00015448,
        "meta_inclination": 98.7746,
        "meta_ra_of_asc_node": 67.1197,
        "meta_arg_of_pericenter": 206.8878,
        "meta_mean_anomaly": 153.2219,
        "meta_ephemeris_type": 0,
        "meta_classification_type": "U",
        "meta_norad_cat_id": 41877,
        "meta_element_set_no": 999,
        "meta_rev_at_epoch": 46931,
        "meta_bstar": 0.00020959666,
        "meta_mean_motion_dot": 4.15e-06,
        "meta_mean_motion_ddot": 0,
        "tle_line1": "1 41877U 16074A   25357.32541444  .00000415  00000+0  20960-3 0  9993",
        "tle_line2": "2 41877  98.7746  67.1197 0001544 206.8878 153.2219 14.21604687469319"
      },
      "geometry": {
        "type": "Point",
        "coordinates": [
          55.609828015451804,
          52.93714767073937
        ]
      }
    }
  ]
}